{
    "links": {
        "self": "http://www.neowsapp.com/rest/v1/neo/3648763?api_key=iIulBulltgU6a56xZRHN4H3l9WmuAYTsLGpBGhQ2"
    },
    "id": "3648763",
    "neo_reference_id": "3648763",
    "name": "(2013 TE4)",
    "designation": "2013 TE4",
    "nasa_jpl_url": "http://ssd.jpl.nasa.gov/sbdb.cgi?sstr=3648763",
    "absolute_magnitude_h": 25.1,
    "estimated_diameter": {
        "kilometers": {
            "estimated_diameter_min": 0.0253837029,
            "estimated_diameter_max": 0.0567596853
        },
        "meters": {
            "estimated_diameter_min": 25.3837029364,
            "estimated_diameter_max": 56.7596852866
        },
        "miles": {
            "estimated_diameter_min": 0.0157726969,
            "estimated_diameter_max": 0.0352688224
        },
        "feet": {
            "estimated_diameter_min": 83.279867942,
            "estimated_diameter_max": 186.2194458756
        }
    },
    "is_potentially_hazardous_asteroid": false,
    "close_approach_data": [
        {
            "close_approach_date": "2013-09-22",
            "close_approach_date_full": "2013-Sep-22 23:43",
            "epoch_date_close_approach": 1379893380000,
            "relative_velocity": {
                "kilometers_per_second": "8.5458193622",
                "kilometers_per_hour": "30764.9497038055",
                "miles_per_hour": "19116.143331234"
            },
            "miss_distance": {
                "astronomical": "0.0808149438",
                "lunar": "31.4370131382",
                "kilometers": "12089743.456649706",
                "miles": "7512218.2377737028"
            },
            "orbiting_body": "Earth"
        }
    ],
    "orbital_data": {
        "orbit_id": "6",
        "orbit_determination_date": "2017-04-06 08:44:25",
        "first_observation_date": "2013-10-02",
        "last_observation_date": "2013-10-07",
        "data_arc_in_days": 5,
        "observations_used": 22,
        "orbit_uncertainty": "8",
        "minimum_orbit_intersection": ".0803413",
        "jupiter_tisserand_invariant": "4.639",
        "epoch_osculation": "2456568.5",
        "eccentricity": ".2643938307123392",
        "semi_major_axis": "1.42137831611342",
        "inclination": "14.02804338145329",
        "ascending_node_longitude": "188.5643022299836",
        "orbital_period": "618.9605296984795",
        "perihelion_distance": "1.045574658224739",
        "perihelion_argument": "142.047444432524",
        "aphelion_distance": "1.797181974002102",
        "perihelion_time": "2456529.396406355310",
        "mean_anomaly": "22.74344329992417",
        "mean_motion": ".5816202855057179",
        "equinox": "J2000",
        "orbit_class": {
            "orbit_class_type": "AMO",
            "orbit_class_description": "Near-Earth asteroid orbits similar to that of 1221 Amor",
            "orbit_class_range": "1.017 AU < q (perihelion) < 1.3 AU"
        }
    },
    "is_sentry_object": false
}